TRANSPORTER-12 OBJECT BT
1 62674U 25009BT  26068.71416991  .00013824  00000+0  51029-3 0  9998
2 62674  97.4094 151.5992 0003682 313.5044  46.5889 15.27872239121360
STARLINK-36506          
1 67414U 26005L   26068.46065812  .00028290  00000+0  10330-2 0  9998
2 67414  42.9969 239.0803 0001043 258.6367 101.4367 15.27599478  8662
